      2.10          N: GNSS NAV DATA                        RINEX VERSION / TYPE
fic2rin                                 01/04/2024 00:17:55 PGM / RUN BY / DATE
                                                            END OF HEADER
8  24  1  3  1 59 44.0 -.160168856382D-03 -.193267624127D-11  .000000000000D+00
     .140000000000D+02 -.250000000000D+01  .473984029052D-08 -.276509094966D+01
    -.184401869774D-06  .912622699980D-02  .740773975849D-05  .515356867599D+04
     .266384000000D+06 -.104308128357D-06 -.271012896528D+01 -.109896063805D-06
     .955677693618D+00  .237000000000D+03  .292834256145D+00 -.810140888477D-08
    -.225366530278D-09  .100000000000D+01  .229500000000D+04  .000000000000D+00
     .240000000000D+01  .000000000000D+00  .512227416039D-08  .140000000000D+02
     .259200000000D+06  .400000000000D+01
27 24  1  3 14  0  0.0 -.889413058758D-06 -.397903932026D-11  .000000000000D+00
     .500000000000D+01 -.653125000000D+01  .441911264521D-08 -.261624092372D+01
    -.357627868652D-06  .121123892022D-01  .660866498947D-05  .515366967010D+04
     .309600000000D+06  .819563865662D-07 -.268527491607D+01 -.117346644402D-06
     .964630749337D+00  .253750000000D+03  .746233918289D+00 -.796783189218D-08
    -.206794328100D-09  .100000000000D+01  .229500000000D+04  .000000000000D+00
    .100000000000D+101  .630000000000D+02  .186264514923D-08  .500000000000D+01
     .302400000000D+06  .400000000000D+01
2  24  1  3 16  0  0.0 -.506244134158D-03  .557065504836D-11  .000000000000D+00
     .490000000000D+02  .126875000000D+02  .419874632321D-08 -.127165816939D+01
     .821426510811D-06  .162994327256D-01  .930018723011D-05  .515390333748D+04
     .316800000000D+06 -.277534127235D-06 -.171500106411D+01  .165775418282D-06
     .967426236569D+00  .209562500000D+03 -.127270103395D+01 -.816248285732D-08
     .796461747257D-10  .100000000000D+01  .229500000000D+04  .000000000000D+00
     .240000000000D+01  .000000000000D+00 -.176951289177D-07  .490000000000D+02
     .309600000000D+06  .400000000000D+01
1  24  1  3 16  0  0.0  .165188685060D-03  .909494701773D-12  .000000000000D+00
     .450000000000D+02  .487500000000D+01  .359550691015D-08  .238791234037D+01
     .132247805595D-06  .130716108251D-01  .922381877899D-05  .515402588654D+04
     .316800000000D+06  .502914190292D-07 -.161147268353D+01 -.221654772758D-06
     .990360580311D+00  .215125000000D+03  .998375953817D+00 -.753959976888D-08
     .735744932444D-10  .100000000000D+01  .229500000000D+04  .000000000000D+00
     .240000000000D+01  .630000000000D+02  .512227416039D-08  .450000000000D+02
     .309600000000D+06  .400000000000D+01
9  24  1  3 16  0  0.0  .471798703074D-04  .120508047985D-10  .000000000000D+00
     .250000000000D+02 -.550000000000D+02  .480662878681D-08 -.121165690182D+01
    -.286474823952D-05  .290749210399D-02  .740028917789D-05  .515374639702D+04
     .316800000000D+06 -.558793544769D-08  .438563645216D+00  .409781932831D-07
     .957696653693D+00  .240500000000D+03  .200416798651D+01 -.821391357104D-08
    -.114290474943D-10  .100000000000D+01  .229500000000D+04  .000000000000D+00
     .240000000000D+01  .000000000000D+00  .139698386192D-08  .250000000000D+02
     .309600000000D+06  .400000000000D+01
7  24  1  3 16  0  0.0 -.282442197204D-04 -.943600753089D-11  .000000000000D+00
     .540000000000D+02 -.196875000000D+01  .480877173322D-08  .176521420721D+01
    -.189989805222D-06  .177524416940D-01  .107791274786D-04  .515368893814D+04
     .316800000000D+06 -.413507223129D-06  .151068119154D+01 -.247731804848D-06
     .949901203587D+00  .170562500000D+03 -.215932124515D+01 -.815569686037D-08
     .592881838765D-10  .100000000000D+01  .229500000000D+04  .000000000000D+00
     .240000000000D+01  .000000000000D+00 -.111758708954D-07  .540000000000D+02
     .309600000000D+06  .400000000000D+01
5  24  1  3 16  0  0.0 -.156585127115D-03 -.147792889038D-11  .000000000000D+00
     .340000000000D+02 -.381250000000D+01  .431267964042D-08 -.135696462524D+01
     .167638063431D-07  .578012072947D-02  .602938234806D-05  .515378438950D+04
     .316800000000D+06  .353902578354D-07 -.631817401251D+00  .987201929092D-07
     .969377978484D+00  .264375000000D+03  .123554606001D+01 -.807283626603D-08
     .257510726355D-09  .100000000000D+01  .229500000000D+04  .000000000000D+00
     .240000000000D+01  .000000000000D+00 -.111758708954D-07  .340000000000D+02
     .309600000000D+06  .400000000000D+01
6  24  1  3 16  0  0.0  .457149930298D-03 -.126192389871D-10  .000000000000D+00
     .260000000000D+02 -.193750000000D+01  .366372403738D-08  .266349551982D+01
     .707805156708D-07  .308672513347D-02  .862218439579D-05  .515354303741D+04
     .316800000000D+06  .372529029846D-08 -.161984622619D+01  .000000000000D+00
     .989490237680D+00  .229156250000D+03 -.821848740819D+00 -.766460497585D-08
     .157149403046D-10  .100000000000D+01  .229500000000D+04  .000000000000D+00
     .240000000000D+01  .000000000000D+00  .372529029846D-08  .260000000000D+02
     .309600000000D+06  .400000000000D+01
3  24  1  3 16  0  0.0  .100909732282D-03  .264890331891D-10  .000000000000D+00
     .103000000000D+03 -.218750000000D+01  .413338645785D-08  .138017738716D+01
    -.193715095520D-06  .506334693637D-02  .590458512306D-05  .515353591728D+04
     .316800000000D+06 -.689178705215D-07 -.582382799747D+00 -.111758708954D-07
     .982408557008D+00  .275562500000D+03  .110130515095D+01 -.804140638542D-08
     .253939149013D-09  .100000000000D+01  .229500000000D+04  .000000000000D+00
     .340000000000D+01  .000000000000D+00  .186264514923D-08  .103000000000D+03
     .309600000000D+06  .400000000000D+01
8  24  1  3 16  0  0.0 -.160264782608D-03 -.193267624127D-11  .000000000000D+00
     .630000000000D+02 -.653125000000D+01  .468626663039D-08 -.169442970026D+01
    -.411644577980D-06  .913033157121D-02  .623986124992D-05  .515356737328D+04
     .316800000000D+06  .260770320892D-07 -.271054348604D+01 -.109896063805D-06
     .955666004902D+00  .256375000000D+03  .293045331817D+00 -.819676999980D-08
    -.203937066226D-09  .100000000000D+01  .229500000000D+04  .000000000000D+00
     .240000000000D+01  .000000000000D+00  .512227416039D-08  .630000000000D+02
     .309600000000D+06  .400000000000D+01
4  24  1  3 16  0  0.0  .256618019193D-03  .989075488178D-11  .000000000000D+00
     .930000000000D+02 -.550625000000D+02  .457090468224D-08 -.193201700435D+01
    -.304169952869D-05  .278002966661D-02  .768527388573D-05  .515359502792D+04
     .316800000000D+06  .149011611938D-07  .496954607171D+00 -.745058059692D-08
     .964200370541D+00  .235156250000D+03 -.302315809453D+01 -.805426406386D-08
    -.300012496725D-10  .100000000000D+01  .229500000000D+04  .000000000000D+00
     .240000000000D+01  .000000000000D+00 -.465661287308D-08  .861000000000D+03
     .309600000000D+06  .400000000000D+01
21 24  1  3 16  0  0.0  .139567069709D-03 -.113686837722D-11  .000000000000D+00
     .700000000000D+01  .139375000000D+02  .425303429881D-08 -.169420857141D+01
     .713393092155D-06  .251648562262D-01  .970251858234D-05  .515374198341D+04
     .316800000000D+06 -.514090061188D-06 -.172133319529D+01 -.102445483208D-06
     .961708877686D+00  .200375000000D+03 -.657655818782D+00 -.815819696451D-08
     .161435295857D-09  .100000000000D+01  .229500000000D+04  .000000000000D+00
     .240000000000D+01  .000000000000D+00 -.102445483208D-07  .700000000000D+01
     .309600000000D+06  .400000000000D+01
15 24  1  3 16  0  0.0  .113512389362D-03  .386535248253D-11  .000000000000D+00
     .430000000000D+02 -.530937500000D+02  .519450208615D-08 -.267237930490D+01
    -.294297933578D-05  .154435775476D-01  .600703060627D-05  .515359002304D+04
     .316800000000D+06  .253319740295D-06  .314457209399D+00 -.279396772385D-07
     .934393157203D+00  .244281250000D+03  .128354085315D+01 -.821712799065D-08
     .106075847056D-09  .100000000000D+01  .229500000000D+04  .000000000000D+00
     .240000000000D+01  .000000000000D+00 -.102445483208D-07  .430000000000D+02
     .309600000000D+06  .400000000000D+01
12 24  1  3 16  0  0.0 -.464158132672D-03 -.386535248253D-11  .000000000000D+00
     .900000000000D+02  .447812500000D+02  .463305012799D-08  .107716128263D+01
     .220164656639D-05  .888199673500D-02  .680051743984D-05  .515373307610D+04
     .316800000000D+06 -.204890966415D-06  .262619114537D+01 -.242143869400D-07
     .963587447365D+00  .250531250000D+03  .140076214842D+01 -.824177187431D-08
    -.378587198248D-10  .100000000000D+01  .229500000000D+04  .000000000000D+00
     .340000000000D+01  .000000000000D+00 -.125728547573D-07  .900000000000D+02
     .309600000000D+06  .400000000000D+01
10 24  1  3 16  0  0.0 -.678780488670D-04 -.147792889038D-11  .000000000000D+00
     .640000000000D+02 -.187500000000D+01  .417303096635D-08  .342185829733D+00
    -.111758708954D-07  .926562678069D-02  .579282641411D-05  .515368488503D+04
     .316800000000D+06 -.651925802231D-07 -.584961504463D+00  .206753611565D-06
     .982101726033D+00  .280187500000D+03 -.239866299179D+01 -.807497921244D-08
     .196079596074D-09  .100000000000D+01  .229500000000D+04  .000000000000D+00
     .240000000000D+01  .000000000000D+00  .232830643654D-08  .640000000000D+02
     .309600000000D+06  .400000000000D+01
31 24  1  3 16  0  0.0 -.227073673159D-03 -.227373675443D-12  .000000000000D+00
     .660000000000D+02  .117812500000D+02  .473305429357D-08  .914535492566D+00
     .841915607452D-06  .106260402827D-01  .994652509689D-05  .515366672325D+04
     .316800000000D+06 -.931322574615D-07  .153158909091D+01  .113621354103D-06
     .953918961799D+00  .185750000000D+03  .646755782946D+00 -.813105297671D-08
    -.910752222200D-10  .100000000000D+01  .229500000000D+04  .000000000000D+00
     .240000000000D+01  .000000000000D+00 -.135041773319D-07  .660000000000D+02
     .309600000000D+06  .400000000000D+01
